[{"OBJECT_NAME":"STARLINK-1559","OBJECT_ID":"2020-055BC","EPOCH":"2026-03-09T05:36:23.522976","MEAN_MOTION":15.29461733,"ECCENTRICITY":0.0004229,"INCLINATION":53.0254,"RA_OF_ASC_NODE":76.0659,"ARG_OF_PERICENTER":33.971,"MEAN_ANOMALY":326.1559,"EPHEMERIS_TYPE":0,"CLASSIFICATION_TYPE":"U","NORAD_CAT_ID":46077,"ELEMENT_SET_NO":999,"REV_AT_EPOCH":30951,"BSTAR":0.0014778793,"MEAN_MOTION_DOT":0.00042685,"MEAN_MOTION_DDOT":0},{"OBJECT_NAME":"STARLINK-35748","OBJECT_ID":"2025-244A","EPOCH":"2026-03-09T17:14:45.170304","MEAN_MOTION":15.30162555,"ECCENTRICITY":0.00019927,"INCLINATION":53.1589,"RA_OF_ASC_NODE":229.8013,"ARG_OF_PERICENTER":158.7664,"MEAN_ANOMALY":201.342,"EPHEMERIS_TYPE":0,"CLASSIFICATION_TYPE":"U","NORAD_CAT_ID":66206,"ELEMENT_SET_NO":999,"REV_AT_EPOCH":2166,"BSTAR":0.00060299912,"MEAN_MOTION_DOT":0.00017522,"MEAN_MOTION_DDOT":0}]
